[{"OBJECT_NAME":"ORBCOMM FM20","OBJECT_ID":"1998-046D","EPOCH":"2026-03-05T06:54:16.880832","MEAN_MOTION":14.37885549,"ECCENTRICITY":0.0001489,"INCLINATION":44.9953,"RA_OF_ASC_NODE":24.1442,"ARG_OF_PERICENTER":288.5025,"MEAN_ANOMALY":71.5662,"EPHEMERIS_TYPE":0,"CLASSIFICATION_TYPE":"U","NORAD_CAT_ID":25416,"ELEMENT_SET_NO":999,"REV_AT_EPOCH":44183,"BSTAR":0.00051808275,"MEAN_MOTION_DOT":1.436e-5,"MEAN_MOTION_DDOT":0},{"OBJECT_NAME":"ORBCOMM FM16","OBJECT_ID":"1998-046E","EPOCH":"2026-03-05T07:14:03.418944","MEAN_MOTION":14.39820484,"ECCENTRICITY":0.00029958,"INCLINATION":44.995,"RA_OF_ASC_NODE":11.9968,"ARG_OF_PERICENTER":195.9006,"MEAN_ANOMALY":164.1749,"EPHEMERIS_TYPE":0,"CLASSIFICATION_TYPE":"U","NORAD_CAT_ID":25417,"ELEMENT_SET_NO":999,"REV_AT_EPOCH":44187,"BSTAR":0.00062118436,"MEAN_MOTION_DOT":1.825e-5,"MEAN_MOTION_DDOT":0},{"OBJECT_NAME":"ORBCOMM FM15","OBJECT_ID":"1998-046F","EPOCH":"2026-03-01T22:38:33.271296","MEAN_MOTION":14.39427017,"ECCENTRICITY":0.0002671,"INCLINATION":44.998,"RA_OF_ASC_NODE":33.9056,"ARG_OF_PERICENTER":186.0202,"MEAN_ANOMALY":174.0615,"EPHEMERIS_TYPE":0,"CLASSIFICATION_TYPE":"U","NORAD_CAT_ID":25418,"ELEMENT_SET_NO":999,"REV_AT_EPOCH":44137,"BSTAR":0.0001764,"MEAN_MOTION_DOT":4.11e-6,"MEAN_MOTION_DDOT":0},{"OBJECT_NAME":"ORBCOMM FM14","OBJECT_ID":"1998-046G","EPOCH":"2026-03-05T06:57:21.139200","MEAN_MOTION":14.39880676,"ECCENTRICITY":0.00015614,"INCLINATION":44.9968,"RA_OF_ASC_NODE":15.4146,"ARG_OF_PERICENTER":208.6427,"MEAN_ANOMALY":151.4337,"EPHEMERIS_TYPE":0,"CLASSIFICATION_TYPE":"U","NORAD_CAT_ID":25419,"ELEMENT_SET_NO":999,"REV_AT_EPOCH":44183,"BSTAR":0.00061721551,"MEAN_MOTION_DOT":1.815e-5,"MEAN_MOTION_DDOT":0},{"OBJECT_NAME":"ORBCOMM FM13","OBJECT_ID":"1998-046H","EPOCH":"2026-03-05T07:11:06.860544","MEAN_MOTION":14.38435405,"ECCENTRICITY":0.00032029,"INCLINATION":44.9985,"RA_OF_ASC_NODE":26.0665,"ARG_OF_PERICENTER":164.8161,"MEAN_ANOMALY":195.2784,"EPHEMERIS_TYPE":0,"CLASSIFICATION_TYPE":"U","NORAD_CAT_ID":25420,"ELEMENT_SET_NO":999,"REV_AT_EPOCH":44082,"BSTAR":0.00056601276,"MEAN_MOTION_DOT":1.601e-5,"MEAN_MOTION_DDOT":0},{"OBJECT_NAME":"ORBCOMM FM21","OBJECT_ID":"1998-053A","EPOCH":"2026-03-05T03:58:28.958016","MEAN_MOTION":14.38003867,"ECCENTRICITY":0.0001088,"INCLINATION":45.0073,"RA_OF_ASC_NODE":112.9854,"ARG_OF_PERICENTER":224.9487,"MEAN_ANOMALY":135.1273,"EPHEMERIS_TYPE":0,"CLASSIFICATION_TYPE":"U","NORAD_CAT_ID":25475,"ELEMENT_SET_NO":999,"REV_AT_EPOCH":43480,"BSTAR":0.00043137545,"MEAN_MOTION_DOT":1.175e-5,"MEAN_MOTION_DDOT":0},{"OBJECT_NAME":"ORBCOMM FM22","OBJECT_ID":"1998-053B","EPOCH":"2026-03-05T06:36:21.237120","MEAN_MOTION":14.39228246,"ECCENTRICITY":0.00010967,"INCLINATION":45.0065,"RA_OF_ASC_NODE":105.0324,"ARG_OF_PERICENTER":135.8222,"MEAN_ANOMALY":224.2715,"EPHEMERIS_TYPE":0,"CLASSIFICATION_TYPE":"U","NORAD_CAT_ID":25476,"ELEMENT_SET_NO":999,"REV_AT_EPOCH":43487,"BSTAR":0.0005254147,"MEAN_MOTION_DOT":1.502e-5,"MEAN_MOTION_DDOT":0},{"OBJECT_NAME":"ORBCOMM FM23","OBJECT_ID":"1998-053C","EPOCH":"2026-03-05T03:02:00.152160","MEAN_MOTION":14.38263902,"ECCENTRICITY":6.577e-5,"INCLINATION":45.0073,"RA_OF_ASC_NODE":114.8524,"ARG_OF_PERICENTER":161.2026,"MEAN_ANOMALY":198.8846,"EPHEMERIS_TYPE":0,"CLASSIFICATION_TYPE":"U","NORAD_CAT_ID":25477,"ELEMENT_SET_NO":999,"REV_AT_EPOCH":43495,"BSTAR":0.00045470148,"MEAN_MOTION_DOT":1.253e-5,"MEAN_MOTION_DDOT":0},{"OBJECT_NAME":"ORBCOMM FM24","OBJECT_ID":"1998-053D","EPOCH":"2026-03-05T07:15:10.537920","MEAN_MOTION":14.38911519,"ECCENTRICITY":8.581e-5,"INCLINATION":45.0071,"RA_OF_ASC_NODE":110.28,"ARG_OF_PERICENTER":190.6817,"MEAN_ANOMALY":169.4014,"EPHEMERIS_TYPE":0,"CLASSIFICATION_TYPE":"U","NORAD_CAT_ID":25478,"ELEMENT_SET_NO":999,"REV_AT_EPOCH":43504,"BSTAR":0.00051511617,"MEAN_MOTION_DOT":1.459e-5,"MEAN_MOTION_DDOT":0},{"OBJECT_NAME":"ORBCOMM FM25","OBJECT_ID":"1998-053E","EPOCH":"2026-03-05T06:41:55.170528","MEAN_MOTION":14.38874011,"ECCENTRICITY":0.00028724,"INCLINATION":45.0062,"RA_OF_ASC_NODE":108.7024,"ARG_OF_PERICENTER":143.5775,"MEAN_ANOMALY":216.527,"EPHEMERIS_TYPE":0,"CLASSIFICATION_TYPE":"U","NORAD_CAT_ID":25479,"ELEMENT_SET_NO":999,"REV_AT_EPOCH":43533,"BSTAR":0.00049530249,"MEAN_MOTION_DOT":1.397e-5,"MEAN_MOTION_DDOT":0},{"OBJECT_NAME":"ORBCOMM FM26","OBJECT_ID":"1998-053F","EPOCH":"2026-03-05T02:59:31.451712","MEAN_MOTION":14.37809357,"ECCENTRICITY":0.00051266,"INCLINATION":45.0063,"RA_OF_ASC_NODE":107.8897,"ARG_OF_PERICENTER":151.5906,"MEAN_ANOMALY":208.5223,"EPHEMERIS_TYPE":0,"CLASSIFICATION_TYPE":"U","NORAD_CAT_ID":25480,"ELEMENT_SET_NO":999,"REV_AT_EPOCH":43519,"BSTAR":0.00040695236,"MEAN_MOTION_DOT":1.095e-5,"MEAN_MOTION_DDOT":0},{"OBJECT_NAME":"ORBCOMM FM27","OBJECT_ID":"1998-053G","EPOCH":"2026-03-05T04:35:10.333248","MEAN_MOTION":14.38917254,"ECCENTRICITY":0.00017804,"INCLINATION":45.0048,"RA_OF_ASC_NODE":109.2185,"ARG_OF_PERICENTER":245.0979,"MEAN_ANOMALY":114.9684,"EPHEMERIS_TYPE":0,"CLASSIFICATION_TYPE":"U","NORAD_CAT_ID":25481,"ELEMENT_SET_NO":999,"REV_AT_EPOCH":43525,"BSTAR":0.00049200087,"MEAN_MOTION_DOT":1.388e-5,"MEAN_MOTION_DDOT":0},{"OBJECT_NAME":"ORBCOMM FM28","OBJECT_ID":"1998-053H","EPOCH":"2026-03-05T03:11:03.971904","MEAN_MOTION":14.39013542,"ECCENTRICITY":0.00036645,"INCLINATION":45.006,"RA_OF_ASC_NODE":46.7015,"ARG_OF_PERICENTER":199.1721,"MEAN_ANOMALY":160.899,"EPHEMERIS_TYPE":0,"CLASSIFICATION_TYPE":"U","NORAD_CAT_ID":25482,"ELEMENT_SET_NO":999,"REV_AT_EPOCH":43593,"BSTAR":0.00044489182,"MEAN_MOTION_DOT":1.244e-5,"MEAN_MOTION_DDOT":0},{"OBJECT_NAME":"ORBCOMM FM30","OBJECT_ID":"1999-065A","EPOCH":"2026-03-05T00:22:21.087840","MEAN_MOTION":14.37969845,"ECCENTRICITY":0.00057956,"INCLINATION":45.0317,"RA_OF_ASC_NODE":294.5041,"ARG_OF_PERICENTER":240.1401,"MEAN_ANOMALY":119.8872,"EPHEMERIS_TYPE":0,"CLASSIFICATION_TYPE":"U","NORAD_CAT_ID":25980,"ELEMENT_SET_NO":999,"REV_AT_EPOCH":37198,"BSTAR":0.00037229007,"MEAN_MOTION_DOT":9.94e-6,"MEAN_MOTION_DDOT":0},{"OBJECT_NAME":"ORBCOMM FM31","OBJECT_ID":"1999-065B","EPOCH":"2026-03-04T22:22:00.031584","MEAN_MOTION":14.37892702,"ECCENTRICITY":0.00035082,"INCLINATION":45.0226,"RA_OF_ASC_NODE":288.3419,"ARG_OF_PERICENTER":270.243,"MEAN_ANOMALY":89.8017,"EPHEMERIS_TYPE":0,"CLASSIFICATION_TYPE":"U","NORAD_CAT_ID":25981,"ELEMENT_SET_NO":999,"REV_AT_EPOCH":37152,"BSTAR":0.00037292038,"MEAN_MOTION_DOT":9.94e-6,"MEAN_MOTION_DDOT":0},{"OBJECT_NAME":"ORBCOMM FM32","OBJECT_ID":"1999-065C","EPOCH":"2026-03-05T03:36:04.166208","MEAN_MOTION":14.36955439,"ECCENTRICITY":0.00057768,"INCLINATION":45.0161,"RA_OF_ASC_NODE":305.6254,"ARG_OF_PERICENTER":265.6692,"MEAN_ANOMALY":94.3496,"EPHEMERIS_TYPE":0,"CLASSIFICATION_TYPE":"U","NORAD_CAT_ID":25982,"ELEMENT_SET_NO":999,"REV_AT_EPOCH":37212,"BSTAR":0.0004078045,"MEAN_MOTION_DOT":1.077e-5,"MEAN_MOTION_DDOT":0}]
