ORBCOMM FM20            
1 25416U 98046D   26064.28769538  .00001436  00000+0  51808-3 0  9999
2 25416  44.9953  24.1442 0001489 288.5025  71.5662 14.37885549441834
ORBCOMM FM16            
1 25417U 98046E   26064.30142846  .00001825  00000+0  62118-3 0  9998
2 25417  44.9950  11.9968 0002995 195.9006 164.1749 14.39820484441870
ORBCOMM FM15            
1 25418U 98046F   26060.94344064  .00000411  00000+0  17640-3 0  9991
2 25418  44.9980  33.9056 0002671 186.0202 174.0615 14.39427017441378
ORBCOMM FM14            
1 25419U 98046G   26064.28982800  .00001815  00000+0  61722-3 0  9998
2 25419  44.9968  15.4146 0001561 208.6427 151.4337 14.39880676441832
ORBCOMM FM13            
1 25420U 98046H   26064.29938496  .00001601  00000+0  56601-3 0  9996
2 25420  44.9985  26.0665 0003202 164.8161 195.2784 14.38435405440824
ORBCOMM FM21            
1 25475U 98053A   26064.16561294  .00001175  00000+0  43138-3 0  9995
2 25475  45.0073 112.9854 0001088 224.9487 135.1273 14.38003867434808
ORBCOMM FM22            
1 25476U 98053B   26064.27524580  .00001502  00000+0  52541-3 0  9997
2 25476  45.0065 105.0324 0001096 135.8222 224.2715 14.39228246434870
ORBCOMM FM23            
1 25477U 98053C   26064.12639065  .00001253  00000+0  45470-3 0  9993
2 25477  45.0073 114.8524 0000657 161.2026 198.8846 14.38263902434954
ORBCOMM FM24            
1 25478U 98053D   26064.30220530  .00001459  00000+0  51512-3 0  9999
2 25478  45.0071 110.2800 0000858 190.6817 169.4014 14.38911519435043
ORBCOMM FM25            
1 25479U 98053E   26064.27911077  .00001397  00000+0  49530-3 0  9997
2 25479  45.0062 108.7024 0002872 143.5775 216.5270 14.38874011435337
ORBCOMM FM26            
1 25480U 98053F   26064.12466958  .00001095  00000+0  40695-3 0  9994
2 25480  45.0063 107.8897 0005126 151.5906 208.5223 14.37809357435191
ORBCOMM FM27            
1 25481U 98053G   26064.19109182  .00001388  00000+0  49200-3 0  9991
2 25481  45.0048 109.2185 0001780 245.0979 114.9684 14.38917254435257
ORBCOMM FM28            
1 25482U 98053H   26064.13268486  .00001244  00000+0  44489-3 0  9994
2 25482  45.0060  46.7015 0003664 199.1721 160.8990 14.39013542435939
ORBCOMM FM30            
1 25980U 99065A   26064.01552185  .00000994  00000+0  37229-3 0  9995
2 25980  45.0317 294.5041 0005795 240.1401 119.8872 14.37969845371989
ORBCOMM FM31            
1 25981U 99065B   26063.93194481  .00000994  00000+0  37292-3 0  9997
2 25981  45.0226 288.3419 0003508 270.2430  89.8017 14.37892702371529
ORBCOMM FM32            
1 25982U 99065C   26064.15004822  .00001077  00000+0  40780-3 0  9991
2 25982  45.0161 305.6254 0005776 265.6692  94.3496 14.36955439372120
